{"type": "FeatureCollection", "features": [ {"type": "Feature", "properties": {"norad_id": 60989, "name": "SENTINEL-2C", "group": "resource", "lat": 12.16320030085601, "lon": 72.17925733220078, "alt_km": 790.1910520705696, "timestamp": "2025-12-27T18:38:03.137315+00:00", "meta": {"OBJECT_NAME": "SENTINEL-2C", "OBJECT_ID": "2024-157A", "EPOCH": "2025-12-27T11:51:48.918816", "MEAN_MOTION": 14.30818428, "ECCENTRICITY": 0.0001368, "INCLINATION": 98.5665, "RA_OF_ASC_NODE": 73.7631, "ARG_OF_PERICENTER": 101.7105, "MEAN_ANOMALY": 258.4231, "EPHEMERIS_TYPE": 0, "CLASSIFICATION_TYPE": "U", "NORAD_CAT_ID": 60989, "ELEMENT_SET_NO": 999, "REV_AT_EPOCH": 6843, "BSTAR": 7.9815e-05, "MEAN_MOTION_DOT": 1.66e-06, "MEAN_MOTION_DDOT": 0}, "tle": {"line1": "1 60989U 24157A   25361.49431619  .00000166  00000+0  79815-4 0  9991", "line2": "2 60989  98.5665  73.7631 0001368 101.7105 258.4231 14.30818428 68438"}}, "geometry": {"type": "Point", "coordinates": [72.17925733220078, 12.16320030085601]}}, {"type": "Feature", "properties": {"norad_id": 61735, "name": "IONOSFERA-M 1", "group": "resource", "lat": -20.844458708015964, "lon": 48.150669540359175, "alt_km": 821.5184355789443, "timestamp": "2025-12-27T18:38:03.137325+00:00", "meta": {"OBJECT_NAME": "IONOSFERA-M 1", "OBJECT_ID": "2024-199A", "EPOCH": "2025-12-27T12:37:43.768128", "MEAN_MOTION": 14.22717351, "ECCENTRICITY": 2.22e-05, "INCLINATION": 98.7395, "RA_OF_ASC_NODE": 231.2602, "ARG_OF_PERICENTER": 359.7807, "MEAN_ANOMALY": 0.3371, "EPHEMERIS_TYPE": 0, "CLASSIFICATION_TYPE": "U", "NORAD_CAT_ID": 61735, "ELEMENT_SET_NO": 999, "REV_AT_EPOCH": 10329, "BSTAR": 5.1281e-05, "MEAN_MOTION_DOT": 7.1e-07, "MEAN_MOTION_DDOT": 0}, "tle": {"line1": "1 61735U 24199A   25361.52620102  .00000071  00000+0  51281-4 0  9990", "line2": "2 61735  98.7395 231.2602 0000222 359.7807   0.3371 14.22717351103298"}}, "geometry": {"type": "Point", "coordinates": [48.150669540359175, -20.844458708015964]}}, {"type": "Feature", "properties": {"norad_id": 61736, "name": "IONOSFERA-M 2", "group": "resource", "lat": 23.354378067872023, "lon": -132.38766316539161, "alt_km": 815.1163554414616, "timestamp": "2025-12-27T18:38:03.137335+00:00", "meta": {"OBJECT_NAME": "IONOSFERA-M 2", "OBJECT_ID": "2024-199B", "EPOCH": "2025-12-27T13:27:35.382816", "MEAN_MOTION": 14.22719532, "ECCENTRICITY": 0.0001877, "INCLINATION": 98.7394, "RA_OF_ASC_NODE": 231.2069, "ARG_OF_PERICENTER": 91.5002, "MEAN_ANOMALY": 268.6391, "EPHEMERIS_TYPE": 0, "CLASSIFICATION_TYPE": "U", "NORAD_CAT_ID": 61736, "ELEMENT_SET_NO": 999, "REV_AT_EPOCH": 10642, "BSTAR": 4.984e-05, "MEAN_MOTION_DOT": 6.7e-07, "MEAN_MOTION_DDOT": 0}, "tle": {"line1": "1 61736U 24199B   25361.56082619  .00000067  00000+0  49840-4 0  9993", "line2": "2 61736  98.7394 231.2069 0001877  91.5002 268.6391 14.22719532106422"}}, "geometry": {"type": "Point", "coordinates": [-132.38766316539161, 23.354378067872023]}}, {"type": "Feature", "properties": {"norad_id": 63772, "name": "BIOMASS", "group": "resource", "lat": 60.88855689516963, "lon": 21.324475805336807, "alt_km": 662.4096974366803, "timestamp": "2025-12-27T18:38:03.137345+00:00", "meta": {"OBJECT_NAME": "BIOMASS", "OBJECT_ID": "2025-090A", "EPOCH": "2025-12-27T11:33:10.502784", "MEAN_MOTION": 14.67537137, "ECCENTRICITY": 0.0001029, "INCLINATION": 98.0691, "RA_OF_ASC_NODE": 186.2744, "ARG_OF_PERICENTER": 86.3274, "MEAN_ANOMALY": 273.8049, "EPHEMERIS_TYPE": 0, "CLASSIFICATION_TYPE": "U", "NORAD_CAT_ID": 63772, "ELEMENT_SET_NO": 999, "REV_AT_EPOCH": 3550, "BSTAR": 0.00024484, "MEAN_MOTION_DOT": 1.341e-05, "MEAN_MOTION_DDOT": 0}, "tle": {"line1": "1 63772U 25090A   25361.48137156  .00001341  00000+0  24484-3 0  9996", "line2": "2 63772  98.0691 186.2744 0001029  86.3274 273.8049 14.67537137 35504"}}, "geometry": {"type": "Point", "coordinates": [21.324475805336807, 60.88855689516963]}}, {"type": "Feature", "properties": {"norad_id": 64694, "name": "GOSAT-GW (IBUKI GW)", "group": "resource", "lat": -30.90512984931224, "lon": -58.12585418295829, "alt_km": 675.2896425784811, "timestamp": "2025-12-27T18:38:03.137355+00:00", "meta": {"OBJECT_NAME": "GOSAT-GW (IBUKI GW)", "OBJECT_ID": "2025-141A", "EPOCH": "2025-12-27T12:13:51.210336", "MEAN_MOTION": 14.67558235, "ECCENTRICITY": 0.0001445, "INCLINATION": 98.0442, "RA_OF_ASC_NODE": 296.7559, "ARG_OF_PERICENTER": 82.6581, "MEAN_ANOMALY": 277.4787, "EPHEMERIS_TYPE": 0, "CLASSIFICATION_TYPE": "U", "NORAD_CAT_ID": 64694, "ELEMENT_SET_NO": 999, "REV_AT_EPOCH": 2666, "BSTAR": 0.00021965, "MEAN_MOTION_DOT": 1.198e-05, "MEAN_MOTION_DDOT": 0}, "tle": {"line1": "1 64694U 25141A   25361.50962049  .00001198  00000+0  21965-3 0  9998", "line2": "2 64694  98.0442 296.7559 0001445  82.6581 277.4787 14.67558235 26663"}}, "geometry": {"type": "Point", "coordinates": [-58.12585418295829, -30.90512984931224]}}, {"type": "Feature", "properties": {"norad_id": 64876, "name": "IONOSFERA-M 3", "group": "resource", "lat": -1.2246801624151833, "lon": -36.59667494272704, "alt_km": 822.5351415268569, "timestamp": "2025-12-27T18:38:03.137365+00:00", "meta": {"OBJECT_NAME": "IONOSFERA-M 3", "OBJECT_ID": "2025-155A", "EPOCH": "2025-12-27T11:52:56.987328", "MEAN_MOTION": 14.2144471, "ECCENTRICITY": 0.0001745, "INCLINATION": 98.5803, "RA_OF_ASC_NODE": 322.945, "ARG_OF_PERICENTER": 35.84, "MEAN_ANOMALY": 324.2895, "EPHEMERIS_TYPE": 0, "CLASSIFICATION_TYPE": "U", "NORAD_CAT_ID": 64876, "ELEMENT_SET_NO": 999, "REV_AT_EPOCH": 2201, "BSTAR": 7.032e-05, "MEAN_MOTION_DOT": 1.11e-06, "MEAN_MOTION_DDOT": 0}, "tle": {"line1": "1 64876U 25155A   25361.49510402  .00000111  00000+0  70320-4 0  9999", "line2": "2 64876  98.5803 322.9450 0001745  35.8400 324.2895 14.21444710 22014"}}, "geometry": {"type": "Point", "coordinates": [-36.59667494272704, -1.2246801624151833]}}, {"type": "Feature", "properties": {"norad_id": 64877, "name": "IONOSFERA-M 4", "group": "resource", "lat": 0.2591053278972949, "lon": 143.17684736587898, "alt_km": 823.9149012214766, "timestamp": "2025-12-27T18:38:03.137375+00:00", "meta": {"OBJECT_NAME": "IONOSFERA-M 4", "OBJECT_ID": "2025-155B", "EPOCH": "2025-12-27T12:43:25.733280", "MEAN_MOTION": 14.21445902, "ECCENTRICITY": 0.000121, "INCLINATION": 98.5803, "RA_OF_ASC_NODE": 322.8984, "ARG_OF_PERICENTER": 50.2005, "MEAN_ANOMALY": 309.9279, "EPHEMERIS_TYPE": 0, "CLASSIFICATION_TYPE": "U", "NORAD_CAT_ID": 64877, "ELEMENT_SET_NO": 999, "REV_AT_EPOCH": 2201, "BSTAR": 6.9421e-05, "MEAN_MOTION_DOT": 1.09e-06, "MEAN_MOTION_DDOT": 0}, "tle": {"line1": "1 64877U 25155B   25361.53015895  .00000109  00000+0  69421-4 0  9998", "line2": "2 64877  98.5803 322.8984 0001210  50.2005 309.9279 14.21445902 22015"}}, "geometry": {"type": "Point", "coordinates": [143.17684736587898, 0.2591053278972949]}}, {"type": "Feature", "properties": {"norad_id": 64899, "name": "MICROCARB", "group": "resource", "lat": -10.38793590015519, "lon": -104.59777287870067, "alt_km": 658.8147115637585, "timestamp": "2025-12-27T18:38:03.137385+00:00", "meta": {"OBJECT_NAME": "MICROCARB", "OBJECT_ID": "2025-156A", "EPOCH": "2025-12-27T04:43:23.827584", "MEAN_MOTION": 14.72080893, "ECCENTRICITY": 0.00176712, "INCLINATION": 98.0009, "RA_OF_ASC_NODE": 76.3095, "ARG_OF_PERICENTER": 101.5211, "MEAN_ANOMALY": 258.7982, "EPHEMERIS_TYPE": 0, "CLASSIFICATION_TYPE": "U", "NORAD_CAT_ID": 64899, "ELEMENT_SET_NO": 999, "REV_AT_EPOCH": 2266, "BSTAR": 0.00014485368, "MEAN_MOTION_DOT": 8.63e-06, "MEAN_MOTION_DDOT": 0}, "tle": {"line1": "1 64899U 25156A   25361.19680356  .00000863  00000+0  14485-3 0  9991", "line2": "2 64899  98.0009  76.3095 0017671 101.5211 258.7982 14.72080893 22666"}}, "geometry": {"type": "Point", "coordinates": [-104.59777287870067, -10.38793590015519]}}, {"type": "Feature", "properties": {"norad_id": 64900, "name": "CO3D 3", "group": "resource", "lat": -46.889608663604356, "lon": 85.94567485198223, "alt_km": 512.4212817640782, "timestamp": "2025-12-27T18:38:03.137395+00:00", "meta": {"OBJECT_NAME": "CO3D 3", "OBJECT_ID": "2025-156B", "EPOCH": "2025-12-27T12:31:24.282912", "MEAN_MOTION": 15.20198828, "ECCENTRICITY": 0.0001347, "INCLINATION": 97.4339, "RA_OF_ASC_NODE": 77.677, "ARG_OF_PERICENTER": 65.3377, "MEAN_ANOMALY": 294.7998, "EPHEMERIS_TYPE": 0, "CLASSIFICATION_TYPE": "U", "NORAD_CAT_ID": 64900, "ELEMENT_SET_NO": 999, "REV_AT_EPOCH": 2345, "BSTAR": 0.00042195, "MEAN_MOTION_DOT": 9.077e-05, "MEAN_MOTION_DDOT": 0}, "tle": {"line1": "1 64900U 25156B   25361.52180883  .00009077  00000+0  42195-3 0  9996", "line2": "2 64900  97.4339  77.6770 0001347  65.3377 294.7998 15.20198828 23452"}}, "geometry": {"type": "Point", "coordinates": [85.94567485198223, -46.889608663604356]}}, {"type": "Feature", "properties": {"norad_id": 64901, "name": "CO3D 4", "group": "resource", "lat": -47.69987982340234, "lon": 86.17774649620547, "alt_km": 513.051043688025, "timestamp": "2025-12-27T18:38:03.137405+00:00", "meta": {"OBJECT_NAME": "CO3D 4", "OBJECT_ID": "2025-156C", "EPOCH": "2025-12-27T12:31:37.762176", "MEAN_MOTION": 15.20213189, "ECCENTRICITY": 0.0001479, "INCLINATION": 97.4337, "RA_OF_ASC_NODE": 77.6771, "ARG_OF_PERICENTER": 147.0802, "MEAN_ANOMALY": 213.0526, "EPHEMERIS_TYPE": 0, "CLASSIFICATION_TYPE": "U", "NORAD_CAT_ID": 64901, "ELEMENT_SET_NO": 999, "REV_AT_EPOCH": 2345, "BSTAR": 0.0003243, "MEAN_MOTION_DOT": 6.962e-05, "MEAN_MOTION_DDOT": 0}, "tle": {"line1": "1 64901U 25156C   25361.52196484  .00006962  00000+0  32430-3 0  9992", "line2": "2 64901  97.4337  77.6771 0001479 147.0802 213.0526 15.20213189 23458"}}, "geometry": {"type": "Point", "coordinates": [86.17774649620547, -47.69987982340234]}}]}